{
    "links": {
        "self": "http://www.neowsapp.com/rest/v1/neo/54087545?api_key=iIulBulltgU6a56xZRHN4H3l9WmuAYTsLGpBGhQ2"
    },
    "id": "54087545",
    "neo_reference_id": "54087545",
    "name": "(2020 VH1)",
    "designation": "2020 VH1",
    "nasa_jpl_url": "http://ssd.jpl.nasa.gov/sbdb.cgi?sstr=54087545",
    "absolute_magnitude_h": 25.725,
    "estimated_diameter": {
        "kilometers": {
            "estimated_diameter_min": 0.0190350918,
            "estimated_diameter_max": 0.0425637593
        },
        "meters": {
            "estimated_diameter_min": 19.0350918435,
            "estimated_diameter_max": 42.5637593199
        },
        "miles": {
            "estimated_diameter_min": 0.0118278541,
            "estimated_diameter_max": 0.0264478857
        },
        "feet": {
            "estimated_diameter_min": 62.4510907237,
            "estimated_diameter_max": 139.6448841272
        }
    },
    "is_potentially_hazardous_asteroid": false,
    "close_approach_data": [
        {
            "close_approach_date": "1928-10-17",
            "close_approach_date_full": "1928-Oct-17 19:40",
            "epoch_date_close_approach": -1300335600000,
            "relative_velocity": {
                "kilometers_per_second": "14.5857146746",
                "kilometers_per_hour": "52508.5728286432",
                "miles_per_hour": "32626.7851556644"
            },
            "miss_distance": {
                "astronomical": "0.2578453616",
                "lunar": "100.3018456624",
                "kilometers": "38573116.884739792",
                "miles": "23968223.4108894496"
            },
            "orbiting_body": "Earth"
        },
        {
            "close_approach_date": "2020-11-18",
            "close_approach_date_full": "2020-Nov-18 13:06",
            "epoch_date_close_approach": 1605704760000,
            "relative_velocity": {
                "kilometers_per_second": "6.7976370015",
                "kilometers_per_hour": "24471.4932053949",
                "miles_per_hour": "15205.6342086522"
            },
            "miss_distance": {
                "astronomical": "0.0564113183",
                "lunar": "21.9440028187",
                "kilometers": "8439013.061572021",
                "miles": "5243759.5600990498"
            },
            "orbiting_body": "Earth"
        }
    ],
    "orbital_data": {
        "orbit_id": "4",
        "orbit_determination_date": "2020-11-22 05:19:53",
        "first_observation_date": "2020-11-08",
        "last_observation_date": "2020-11-20",
        "data_arc_in_days": 12,
        "observations_used": 26,
        "orbit_uncertainty": "8",
        "minimum_orbit_intersection": ".0437179",
        "jupiter_tisserand_invariant": "4.108",
        "epoch_osculation": "2459162.5",
        "eccentricity": ".4175902369979477",
        "semi_major_axis": "1.688644481086674",
        "inclination": "7.431955235102021",
        "ascending_node_longitude": "214.4646666586416",
        "orbital_period": "801.5041296092196",
        "perihelion_distance": ".9834830320244137",
        "perihelion_argument": "222.7697545388797",
        "aphelion_distance": "2.393805930148935",
        "perihelion_time": "2459190.944776312445",
        "mean_anomaly": "347.2238718502014",
        "mean_motion": ".4491555148636865",
        "equinox": "J2000",
        "orbit_class": {
            "orbit_class_type": "APO",
            "orbit_class_description": "Near-Earth asteroid orbits which cross the Earth’s orbit similar to that of 1862 Apollo",
            "orbit_class_range": "a (semi-major axis) > 1.0 AU; q (perihelion) < 1.017 AU"
        }
    },
    "is_sentry_object": false
}